{
  "norad_id": 56777,
  "name": "STARLINK-5582",
  "history": [
    {
      "epoch": "2026-03-28T20:08:27.964320Z",
      "apogee_km": 573.8342173454766,
      "perigee_km": 570.2897548665424,
      "latitude_deg": 4.846600374402183e-06,
      "longitude_deg": 168.00438221787576,
      "height_km": 574.4295476605052,
      "semi_major_axis_km": 6950.198986106009,
      "eccentricity": 0.00025499,
      "inclination_deg": 69.9975,
      "raan_deg": 296.3748,
      "arg_perigee_deg": 271.9157,
      "mean_anomaly_deg": 88.171,
      "mean_motion_rev_day": 14.98328029
    },
    {
      "epoch": "2026-03-28T23:20:44.036160Z",
      "apogee_km": 573.8176656198393,
      "perigee_km": 570.2980869344938,
      "latitude_deg": -6.461643254514767e-06,
      "longitude_deg": 119.4689093952755,
      "height_km": 574.4140090018526,
      "semi_major_axis_km": 6950.194876277166,
      "eccentricity": 0.0002532,
      "inclination_deg": 69.9975,
      "raan_deg": 296.0379,
      "arg_perigee_deg": 272.301,
      "mean_anomaly_deg": 87.7859,
      "mean_motion_rev_day": 14.98329358
    },
    {
      "epoch": "2026-03-29T23:22:45.004800Z",
      "apogee_km": 573.9235075941551,
      "perigee_km": 570.1717979185978,
      "latitude_deg": 2.4508169653023414e-05,
      "longitude_deg": 115.45296011355735,
      "height_km": 574.4477729356089,
      "semi_major_axis_km": 6950.184652756377,
      "eccentricity": 0.0002699,
      "inclination_deg": 69.9974,
      "raan_deg": 293.513,
      "arg_perigee_deg": 270.8199,
      "mean_anomaly_deg": 89.2651,
      "mean_motion_rev_day": 14.98332664
    },
    {
      "epoch": "2026-03-29T23:22:45.005664Z",
      "apogee_km": 573.9236465978493,
      "perigee_km": 570.1716589149046,
      "latitude_deg": 2.6675154591105607e-05,
      "longitude_deg": 115.45295728822029,
      "height_km": 574.4477709460956,
      "semi_major_axis_km": 6950.184652756377,
      "eccentricity": 0.00026992,
      "inclination_deg": 69.9974,
      "raan_deg": 293.513,
      "arg_perigee_deg": 270.8199,
      "mean_anomaly_deg": 89.2651,
      "mean_motion_rev_day": 14.98332664
    },
    {
      "epoch": "2026-03-30T13:47:57.233472Z",
      "apogee_km": 573.9022155705552,
      "perigee_km": 570.1598280975177,
      "latitude_deg": 4.4905684906148876e-05,
      "longitude_deg": -102.9552955896806,
      "height_km": 574.4253921992848,
      "semi_major_axis_km": 6950.168021834036,
      "eccentricity": 0.00026923,
      "inclination_deg": 69.9974,
      "raan_deg": 291.9979,
      "arg_perigee_deg": 270.9979,
      "mean_anomaly_deg": 89.0872,
      "mean_motion_rev_day": 14.98338042
    },
    {
      "epoch": "2026-03-30T21:48:37.294272Z",
      "apogee_km": 573.8932561310021,
      "perigee_km": 570.1554593528081,
      "latitude_deg": 7.767364245229124e-06,
      "longitude_deg": 135.70706601450985,
      "height_km": 574.4140115143726,
      "semi_major_axis_km": 6950.161357741905,
      "eccentricity": 0.0002689,
      "inclination_deg": 69.9974,
      "raan_deg": 291.1562,
      "arg_perigee_deg": 271.1438,
      "mean_anomaly_deg": 88.9413,
      "mean_motion_rev_day": 14.98340197
    },
    {
      "epoch": "2026-03-30T23:24:45.293472Z",
      "apogee_km": 573.890302384154,
      "perigee_km": 570.1551475447641,
      "latitude_deg": -1.3077148609778892e-05,
      "longitude_deg": 111.43952762584581,
      "height_km": 574.4116038804158,
      "semi_major_axis_km": 6950.159724964458,
      "eccentricity": 0.00026871,
      "inclination_deg": 69.9974,
      "raan_deg": 290.9878,
      "arg_perigee_deg": 271.1684,
      "mean_anomaly_deg": 88.9167,
      "mean_motion_rev_day": 14.98340725
    },
    {
      "epoch": "2026-04-01T12:15:50.240160Z",
      "apogee_km": 573.7811433926345,
      "perigee_km": 570.2782593751372,
      "latitude_deg": -2.6156532692272855e-05,
      "longitude_deg": -86.71581840292691,
      "height_km": 574.4232829517945,
      "semi_major_axis_km": 6950.166701383886,
      "eccentricity": 0.000252,
      "inclination_deg": 69.9977,
      "raan_deg": 287.1165,
      "arg_perigee_deg": 271.087,
      "mean_anomaly_deg": 89.0,
      "mean_motion_rev_day": 14.98338469
    },
    {
      "epoch": "2026-04-02T18:42:23.297184Z",
      "apogee_km": 573.8003406063444,
      "perigee_km": 570.2988366030049,
      "latitude_deg": -5.569420842709689e-05,
      "longitude_deg": 172.1968047522846,
      "height_km": 574.5440738668822,
      "semi_major_axis_km": 6950.186588604674,
      "eccentricity": 0.0002519,
      "inclination_deg": 69.9996,
      "raan_deg": 283.9171,
      "arg_perigee_deg": 267.7893,
      "mean_anomaly_deg": 92.2977,
      "mean_motion_rev_day": 14.98332038
    },
    {
      "epoch": "2026-04-02T21:54:39.481344Z",
      "apogee_km": 573.8520208555574,
      "perigee_km": 570.251961961787,
      "latitude_deg": 1.858053575636319e-05,
      "longitude_deg": 123.66109377426422,
      "height_km": 574.5879267134715,
      "semi_major_axis_km": 6950.188991408671,
      "eccentricity": 0.00025899,
      "inclination_deg": 69.9997,
      "raan_deg": 283.5804,
      "arg_perigee_deg": 266.5313,
      "mean_anomaly_deg": 93.555,
      "mean_motion_rev_day": 14.98331261
    },
    {
      "epoch": "2026-04-03T18:44:24.422208Z",
      "apogee_km": 574.0605303986849,
      "perigee_km": 570.0599968537426,
      "latitude_deg": -4.2711529995730854e-05,
      "longitude_deg": 168.1795951832653,
      "height_km": 574.7178338962528,
      "semi_major_axis_km": 6950.1972636262135,
      "eccentricity": 0.0002878,
      "inclination_deg": 69.9975,
      "raan_deg": 281.3916,
      "arg_perigee_deg": 263.3858,
      "mean_anomaly_deg": 96.6973,
      "mean_motion_rev_day": 14.98328586
    },
    {
      "epoch": "2026-04-04T20:22:34.330944Z",
      "apogee_km": 574.1257057261337,
      "perigee_km": 570.0181322550106,
      "latitude_deg": -5.620827408424188e-05,
      "longitude_deg": 139.89246644313735,
      "height_km": 574.5690837902413,
      "semi_major_axis_km": 6950.208918990572,
      "eccentricity": 0.0002955,
      "inclination_deg": 69.9982,
      "raan_deg": 278.6986,
      "arg_perigee_deg": 268.0503,
      "mean_anomaly_deg": 92.0317,
      "mean_motion_rev_day": 14.98324817
    },
    {
      "epoch": "2026-04-05T14:00:00.201888Z",
      "apogee_km": 573.9058065535874,
      "perigee_km": 570.0553024260489,
      "latitude_deg": 2.5875833923356468e-05,
      "longitude_deg": -127.03998655515684,
      "height_km": 574.3478904790085,
      "semi_major_axis_km": 6950.117554489818,
      "eccentricity": 0.00027701,
      "inclination_deg": 69.9985,
      "raan_deg": 276.8477,
      "arg_perigee_deg": 271.7798,
      "mean_anomaly_deg": 88.3044,
      "mean_motion_rev_day": 14.98354362
    },
    {
      "epoch": "2026-04-05T20:24:31.827168Z",
      "apogee_km": 573.8625892267119,
      "perigee_km": 570.0692230605391,
      "latitude_deg": 6.632195361019385e-05,
      "longitude_deg": 135.8911561693238,
      "height_km": 574.3885068493342,
      "semi_major_axis_km": 6950.102906143626,
      "eccentricity": 0.0002729,
      "inclination_deg": 69.9984,
      "raan_deg": 276.1738,
      "arg_perigee_deg": 270.1357,
      "mean_anomaly_deg": 89.949,
      "mean_motion_rev_day": 14.98359099
    },
    {
      "epoch": "2026-04-05T22:00:39.763296Z",
      "apogee_km": 573.8542240307506,
      "perigee_km": 570.0725354121378,
      "latitude_deg": -2.4755262934823246e-05,
      "longitude_deg": 111.62385567865708,
      "height_km": 574.385826818392,
      "semi_major_axis_km": 6950.100379721444,
      "eccentricity": 0.00027206,
      "inclination_deg": 69.9984,
      "raan_deg": 276.0054,
      "arg_perigee_deg": 270.1408,
      "mean_anomaly_deg": 89.9439,
      "mean_motion_rev_day": 14.98359916
    },
    {
      "epoch": "2026-04-07T12:27:55.878336Z",
      "apogee_km": 573.8487188945828,
      "perigee_km": 570.194603476878,
      "latitude_deg": 2.353524138745712e-05,
      "longitude_deg": -110.81254622108979,
      "height_km": 574.5932034613073,
      "semi_major_axis_km": 6950.15866118573,
      "eccentricity": 0.00026288,
      "inclination_deg": 69.9985,
      "raan_deg": 271.9654,
      "arg_perigee_deg": 265.4623,
      "mean_anomaly_deg": 94.6236,
      "mean_motion_rev_day": 14.98341069
    },
    {
      "epoch": "2026-04-07T20:28:35.988384Z",
      "apogee_km": 573.9093292883617,
      "perigee_km": 570.1367824100471,
      "latitude_deg": -8.443308423420442e-07,
      "longitude_deg": 127.84861287639124,
      "height_km": 574.4560817543446,
      "semi_major_axis_km": 6950.160055849205,
      "eccentricity": 0.0002714,
      "inclination_deg": 69.9981,
      "raan_deg": 271.1227,
      "arg_perigee_deg": 269.8183,
      "mean_anomaly_deg": 90.2665,
      "mean_motion_rev_day": 14.98340618
    },
    {
      "epoch": "2026-04-08T14:06:05.107968Z",
      "apogee_km": 573.8811100212779,
      "perigee_km": 570.3085518555399,
      "latitude_deg": 4.764445440612509e-06,
      "longitude_deg": -139.09704192396802,
      "height_km": 574.7922797989987,
      "semi_major_axis_km": 6950.231830938409,
      "eccentricity": 0.00025701,
      "inclination_deg": 69.9986,
      "raan_deg": 269.2722,
      "arg_perigee_deg": 261.2889,
      "mean_anomaly_deg": 98.7979,
      "mean_motion_rev_day": 14.98317408
    }
  ]
}